[Satellite]
VERSION=1.1
NAME=NOAA 4
NICKNAME=NOAA 4
TLE1=1 07529U 74089A   22342.41690755 -.00000032  00000+0  88471-4 0  9998
TLE2=2 07529 101.9359 322.6966 0009017 129.9536  25.5710 12.53163176198338
STATUS=2
